NORAD_CAT_ID,OBJECT_NAME,OBJECT_TYPE,EPOCH,MEAN_MOTION,ECCENTRICITY,INCLINATION,RA_OF_ASC_NODE,ARG_OF_PERICENTER,MEAN_ANOMALY,BSTAR,MEAN_MOTION_DOT,MEAN_MOTION_DDOT,TLE_LINE0,TLE_LINE1,TLE_LINE2,SEMIMAJOR_AXIS,PERIOD,APOGEE,PERIGEE,DECAYED
51734.0,STARLINK-3450,PAYLOAD,2022-07-07 22:00:00,15.08827984,0.0001875,53.2145,218.0749,51.7996,110.5287,0.0021561,0.00034182,0.0,0 STARLINK-3450,1 51734U 22016W   22188.91667824  .00034182  00000-0  21561-2 0  9990,2 51734  53.2145 218.0749 0001875  51.7996 110.5287 15.08827984 22269,6917.917,95.438,541.0790000000002,538.485,0.0
51734.0,STARLINK-3450,PAYLOAD,2022-07-08 11:35:29,15.0884738,0.000194,53.2148,215.5327,51.7991,308.3176,7.2907e-05,8.73e-06,0.0,0 STARLINK-3450,1 51734U 22016W   22189.48298231  .00000873  00000-0  72907-4 0  9997,2 51734  53.2148 215.5327 0001940  51.7991 308.3176 15.08847380 21236,6917.858,95.437,541.065,538.381,0.0
51734.0,STARLINK-3450,PAYLOAD,2022-07-08 22:00:01,15.08817137,0.0001861,53.2146,213.5852,50.2929,146.9421,0.0024497,0.0003889,0.0,0 STARLINK-3450,1 51734U 22016W   22189.91668981  .00038890  00000-0  24497-2 0  9997,2 51734  53.2146 213.5852 0001861  50.2929 146.9421 15.08817137  1304,6917.95,95.439,541.1030000000002,538.528,0.0
51734.0,STARLINK-3450,PAYLOAD,2022-07-09 14:00:01,15.0883111,0.0002003,53.2143,210.5941,44.2302,176.11700000000005,-0.0012667,-0.00020387,0.0,0 STARLINK-3450,1 51734U 22016W   22190.58334491 -.00020387  00000-0 -12667-2 0  9998,2 51734  53.2143 210.5941 0002003  44.2302 176.1170 15.08831110  1307,6917.908,95.438,541.158,538.387,0.0
51734.0,STARLINK-3450,PAYLOAD,2022-07-09 16:00:00,15.08838465,0.0001946,53.2143,210.2195,44.8807,268.3597,-0.0028808,-0.00045844,0.0,0 STARLINK-3450,1 51734U 22016W   22190.66667824 -.00045844  00000-0 -28808-2 0  9995,2 51734  53.2143 210.2195 0001946  44.8807 268.3597 15.08838465 22520,6917.885,95.438,541.096,538.404,0.0
51734.0,STARLINK-3450,PAYLOAD,2022-07-09 20:00:01,15.08804921,0.0001805,53.2146,209.4704,47.7241,91.3115,0.00068738,0.00010658,0.0,0 STARLINK-3450,1 51734U 22016W   22190.83334491  .00010658  00000-0  68738-3 0  9995,2 51734  53.2146 209.4704 0001805  47.7241  91.3115 15.08804921  1300,6917.988,95.44,541.101,538.604,0.0
51734.0,STARLINK-3450,PAYLOAD,2022-07-10 06:00:00,15.08829158,0.0001917,53.2144,207.601,47.6398,195.8471,-0.0014562999999999,-0.00023384,0.0,0 STARLINK-3450,1 51734U 22016W   22191.25001157 -.00023384  00000-0 -14563-2 0  9990,2 51734  53.2144 207.6010 0001917  47.6398 195.8471 15.08829158 22615,6917.9140000000025,95.438,541.105,538.452,0.0
51734.0,STARLINK-3450,PAYLOAD,2022-07-10 14:00:01,15.08821012,0.0001978,53.2139,206.1049,44.554,210.4999,-0.00010497,-1.958e-05,0.0,0 STARLINK-3450,1 51734U 22016W   22191.58334491 -.00001958  00000-0 -10497-3 0  9992,2 51734  53.2139 206.1049 0001978  44.5540 210.4999 15.08821012  1300,6917.938,95.439,541.172,538.435,0.0
51734.0,STARLINK-3450,PAYLOAD,2022-07-10 22:00:00,15.08796659,0.000181,53.2139,204.6069,50.5165,216.116,0.0026224,0.00041645,0.0,0 STARLINK-3450,1 51734U 22016W   22191.91667824  .00041645  00000-0  26224-2 0  9997,2 51734  53.2139 204.6069 0001810  50.5165 216.1160 15.08796659 22719,6918.013000000001,95.44,541.13,538.626,0.0
51734.0,STARLINK-3450,PAYLOAD,2022-07-11 14:00:01,15.088299,0.000198,53.2138,201.6157,46.0617,243.7059,-0.0007898,-0.00012833,0.0,0 STARLINK-3450,1 51734U 22016W   22192.58334491 -.00012833  00000-0 -78980-3 0  9998,2 51734  53.2138 201.6157 0001980  46.0617 243.7059 15.08829900  1304,6917.911,95.438,541.146,538.4069999999998,0.0
51734.0,STARLINK-3450,PAYLOAD,2022-07-11 22:00:00,15.08801026,0.000184,53.2144,200.1177,52.825,248.5282,0.0027127,0.00043103,0.0,0 STARLINK-3450,1 51734U 22016W   22192.91667824  .00043103  00000-0  27127-2 0  9992,2 51734  53.2144 200.1177 0001840  52.8250 248.5282 15.08801026  1300,6918.0,95.44,541.137,538.592,0.0
51734.0,STARLINK-3450,PAYLOAD,2022-07-12 14:00:01,15.08837705,0.0001984,53.2144,197.1264,47.338,277.1664,9.9764e-05,1.3e-05,0.0,0 STARLINK-3450,1 51734U 22016W   22193.58334491  .00001300  00000-0  99764-4 0  9998,2 51734  53.2144 197.1264 0001984  47.3380 277.1664 15.08837705 22964,6917.887,95.438,541.125,538.38,0.0
51734.0,STARLINK-3450,PAYLOAD,2022-07-12 22:00:00,15.08828382,0.0001813,53.2144,195.6285,53.0764,283.0201,0.0039834,0.00063661,0.0,0 STARLINK-3450,1 51734U 22016W   22193.91667824  .00063661  00000-0  39834-2 0  9992,2 51734  53.2144 195.6285 0001813  53.0764 283.0201 15.08828382  1300,6917.916,95.438,541.035,538.5269999999998,0.0
51734.0,STARLINK-3450,PAYLOAD,2022-07-13 06:00:00,15.08876583,0.0001938,53.2145,194.1337,48.6765,299.0284,-0.0018956,-0.00030361,0.0,0 STARLINK-3450,1 51734U 22016W   22194.25001157 -.00030361  00000-0 -18956-2 0  9996,2 51734  53.2145 194.1337 0001938  48.6765 299.0284 15.08876583 23063,6917.769,95.435,540.974,538.293,0.0
51734.0,STARLINK-3450,PAYLOAD,2022-07-13 14:00:01,15.08868618,0.0001921,53.2143,192.637,44.9047,314.4209,-0.0031746,-0.00050498,0.0,0 STARLINK-3450,1 51734U 22016W   22194.58334491 -.00050498  00000-0 -31746-2 0  9997,2 51734  53.2143 192.6370 0001921  44.9047 314.4209 15.08868618  1307,6917.793000000002,95.436,540.987,538.3290000000002,0.0
51734.0,STARLINK-3450,PAYLOAD,2022-07-13 22:00:00,15.08819592,0.0001792,53.2145,191.1391,51.0136,319.9248,0.0027232,0.00043294,0.0,0 STARLINK-3450,1 51734U 22016W   22194.91667824  .00043294  00000-0  27232-2 0  9992,2 51734  53.2145 191.1391 0001792  51.0136 319.9248 15.08819592  1300,6917.943,95.439,541.047,538.568,0.0
51734.0,STARLINK-3450,PAYLOAD,2022-07-14 08:00:01,15.0883735,0.0002023,53.2149,189.2705,46.7303,68.7048,0.00079094,0.00012321,0.0,0 STARLINK-3450,1 51734U 22016W   22195.33334491  .00012321  00000-0  79094-3 0  9991,2 51734  53.2149 189.2705 0002023  46.7303  68.7048 15.08837350 23231,6917.888000000001,95.438,541.153,538.354,0.0
51734.0,STARLINK-3450,PAYLOAD,2022-07-14 14:00:01,15.0886046,0.0001996,53.2148,188.1475,45.2359,348.8878,-0.0016779,-0.00026908,0.0,0 STARLINK-3450,1 51734U 22016W   22195.58334491 -.00026908  00000-0 -16779-2 0  9996,2 51734  53.2148 188.1475 0001996  45.2359 348.8878 15.08860460  1300,6917.818,95.436,541.064,538.302,0.0
51734.0,STARLINK-3450,PAYLOAD,2022-07-14 22:00:00,15.08831302,0.0001907,53.2151,186.6497,51.6527,354.0827,0.0024805,0.00039401,0.0,0 STARLINK-3450,1 51734U 22016W   22195.91667824  .00039401  00000-0  24805-2 0  9991,2 51734  53.2151 186.6497 0001907  51.6527 354.0827 15.08831302  1307,6917.906999999997,95.438,541.091,538.453,0.0
51734.0,STARLINK-3450,PAYLOAD,2022-07-15 14:00:01,15.08885725,0.0002052,53.2157,183.6581,45.8819,23.0657,-0.0043986,-0.00069704,0.0,0 STARLINK-3450,1 51734U 22016W   22196.58334491 -.00069704  00000-0 -43986-2 0  9998,2 51734  53.2157 183.6581 0002052  45.8819  23.0657 15.08885725 23424,6917.741,95.435,541.025,538.186,0.0
51734.0,STARLINK-3450,PAYLOAD,2022-07-15 22:00:00,15.08821872,0.0001906,53.2161,182.1604,50.8523,29.7202,0.0022576,0.00035807,0.0,0 STARLINK-3450,1 51734U 22016W   22196.91667824  .00035807  00000-0  22576-2 0  9991,2 51734  53.2161 182.1604 0001906  50.8523  29.7202 15.08821872  1309,6917.936,95.439,541.119,538.482,0.0
51734.0,STARLINK-3450,PAYLOAD,2022-07-16 06:00:00,15.08841809,0.0002102,53.2163,180.6659,47.0539,45.0807,-0.00061967,-0.00010138,0.0,0 STARLINK-3450,1 51734U 22016W   22197.25001157 -.00010138  00000-0 -61967-3 0  9990,2 51734  53.2163 180.6659 0002102  47.0539  45.0807 15.08841809 23520,6917.875,95.437,541.194,538.286,0.0
51734.0,STARLINK-3450,PAYLOAD,2022-07-16 14:00:01,15.08861379,0.0002059,53.2165,179.169,46.6866,57.0403,-0.0017103,-0.00027421,0.0,0 STARLINK-3450,1 51734U 22016W   22197.58334491 -.00027421  00000-0 -17103-2 0  9991,2 51734  53.2165 179.1690 0002059  46.6866  57.0403 15.08861379  1300,6917.815,95.436,541.104,538.256,0.0
51734.0,STARLINK-3450,PAYLOAD,2022-07-16 22:00:00,15.08845342,0.0001949,53.2169,177.6714,52.4304,62.9078,0.001646,0.00026009,0.0,0 STARLINK-3450,1 51734U 22016W   22197.91667824  .00026009  00000-0  16460-2 0  9991,2 51734  53.2169 177.6714 0001949  52.4304  62.9078 15.08845342 23627,6917.864000000001,95.437,541.077,538.381,0.0
51734.0,STARLINK-3450,PAYLOAD,2022-07-17 14:00:01,15.0885288,0.0001979,53.2169,174.6799,46.7092,91.8404,-0.0017579999999999,-0.00028168,0.0,0 STARLINK-3450,1 51734U 22016W   22198.58334491 -.00028168  00000-0 -17580-2 0  9990,2 51734  53.2169 174.6799 0001979  46.7092  91.8404 15.08852880 23720,6917.840999999999,95.437,541.075,538.337,0.0
51734.0,STARLINK-3450,PAYLOAD,2022-07-17 22:00:00,15.08834671,0.0001878,53.2172,173.1826,52.5715,97.5692,0.0014683,0.00023154,0.0,0 STARLINK-3450,1 51734U 22016W   22198.91667824  .00023154  00000-0  14683-2 0  9995,2 51734  53.2172 173.1826 0001878  52.5715  97.5692 15.08834671  1304,6917.897,95.438,541.061,538.462,0.0
51734.0,STARLINK-3450,PAYLOAD,2022-07-18 06:00:00,15.08847788,0.0002011,53.2171,171.6881,46.6904,115.0542,-0.0025892,-0.00041269,0.0,0 STARLINK-3450,1 51734U 22016W   22199.25001157 -.00041269  00000-0 -25892-2 0  9997,2 51734  53.2171 171.6881 0002011  46.6904 115.0542 15.08847788 23825,6917.857,95.437,541.113,538.33,0.0
51734.0,STARLINK-3450,PAYLOAD,2022-07-18 14:00:01,15.08838579,0.0001884,53.2167,170.1909,46.5742,126.7564,-0.0018947,-0.00030315,0.0,0 STARLINK-3450,1 51734U 22016W   22199.58334491 -.00030315  00000-0 -18947-2 0  9996,2 51734  53.2167 170.1909 0001884  46.5742 126.7564 15.08838579  1301,6917.885,95.438,541.053,538.446,0.0
51734.0,STARLINK-3450,PAYLOAD,2022-07-18 22:00:00,15.08826668,0.0001803,53.217,168.6939,52.8764,132.032,0.0010890999999999,0.00017081,0.0,0 STARLINK-3450,1 51734U 22016W   22199.91667824  .00017081  00000-0  10891-2 0  9995,2 51734  53.2170 168.6939 0001803  52.8764 132.0320 15.08826668  1301,6917.920999999999,95.438,541.033,538.539,0.0
